[{"OBJECT_NAME":"KAZSTSAT","OBJECT_ID":"2018-099AB","EPOCH":"2026-03-09T14:51:18.118944","MEAN_MOTION":14.99620503,"ECCENTRICITY":0.0006528,"INCLINATION":97.4396,"RA_OF_ASC_NODE":105.0128,"ARG_OF_PERICENTER":11.1145,"MEAN_ANOMALY":349.0222,"EPHEMERIS_TYPE":0,"CLASSIFICATION_TYPE":"U","NORAD_CAT_ID":43783,"ELEMENT_SET_NO":999,"REV_AT_EPOCH":39638,"BSTAR":0.00011446,"MEAN_MOTION_DOT":1.354e-5,"MEAN_MOTION_DDOT":0},{"OBJECT_NAME":"STARLINK-4308","OBJECT_ID":"2022-077U","EPOCH":"2026-03-09T22:42:53.272224","MEAN_MOTION":15.01259327,"ECCENTRICITY":7.509e-5,"INCLINATION":97.6014,"RA_OF_ASC_NODE":250.4609,"ARG_OF_PERICENTER":177.667,"MEAN_ANOMALY":182.4558,"EPHEMERIS_TYPE":0,"CLASSIFICATION_TYPE":"U","NORAD_CAT_ID":53061,"ELEMENT_SET_NO":999,"REV_AT_EPOCH":20095,"BSTAR":-1.7335988e-5,"MEAN_MOTION_DOT":-2.81e-6,"MEAN_MOTION_DDOT":0}]
